{"type": "FeatureCollection", "features": [ {"type": "Feature", "properties": {"norad_id": 31255, "name": "FENGYUN 1C DEB", "group": "fengyun-1c-debris", "lat": 80.68251634522952, "lon": 85.99406253849214, "alt_km": 988.0233343757363, "timestamp": "2025-12-22T23:36:20.994778+00:00", "meta": {"OBJECT_NAME": "FENGYUN 1C DEB", "OBJECT_ID": "1999-025BMM", "EPOCH": "2025-12-21T18:13:31.127520", "MEAN_MOTION": 14.09740914, "ECCENTRICITY": 0.02703913, "INCLINATION": 99.3083, "RA_OF_ASC_NODE": 173.1641, "ARG_OF_PERICENTER": 318.3493, "MEAN_ANOMALY": 39.7361, "EPHEMERIS_TYPE": 0, "CLASSIFICATION_TYPE": "U", "NORAD_CAT_ID": 31255, "ELEMENT_SET_NO": 999, "REV_AT_EPOCH": 96928, "BSTAR": 0.00025060122, "MEAN_MOTION_DOT": 5.64e-06, "MEAN_MOTION_DDOT": 0}, "tle": {"line1": "1 31255U 99025BMM 25355.75938805  .00000564  00000+0  25060-3 0  9996", "line2": "2 31255  99.3083 173.1641 0270391 318.3493  39.7361 14.09740914969288"}}, "geometry": {"type": "Point", "coordinates": [85.99406253849214, 80.68251634522952]}}, {"type": "Feature", "properties": {"norad_id": 31256, "name": "FENGYUN 1C DEB", "group": "fengyun-1c-debris", "lat": 76.78471688017406, "lon": 163.61648890919056, "alt_km": 651.5910681997457, "timestamp": "2025-12-22T23:36:20.994789+00:00", "meta": {"OBJECT_NAME": "FENGYUN 1C DEB", "OBJECT_ID": "1999-025BMN", "EPOCH": "2025-12-22T00:59:49.049088", "MEAN_MOTION": 14.03375619, "ECCENTRICITY": 0.03086023, "INCLINATION": 98.6793, "RA_OF_ASC_NODE": 203.2925, "ARG_OF_PERICENTER": 87.7865, "MEAN_ANOMALY": 275.8601, "EPHEMERIS_TYPE": 0, "CLASSIFICATION_TYPE": "U", "NORAD_CAT_ID": 31256, "ELEMENT_SET_NO": 999, "REV_AT_EPOCH": 65112, "BSTAR": 0.0022456636, "MEAN_MOTION_DOT": 5.318e-05, "MEAN_MOTION_DDOT": 0}, "tle": {"line1": "1 31256U 99025BMN 25356.04153992  .00005318  00000+0  22457-2 0  9994", "line2": "2 31256  98.6793 203.2925 0308602  87.7865 275.8601 14.03375619651127"}}, "geometry": {"type": "Point", "coordinates": [163.61648890919056, 76.78471688017406]}}, {"type": "Feature", "properties": {"norad_id": 31258, "name": "FENGYUN 1C DEB", "group": "fengyun-1c-debris", "lat": -37.33877423939578, "lon": 154.34587730522955, "alt_km": 519.5634801273409, "timestamp": "2025-12-22T23:36:20.994799+00:00", "meta": {"OBJECT_NAME": "FENGYUN 1C DEB", "OBJECT_ID": "1999-025BMQ", "EPOCH": "2025-12-22T09:37:59.675232", "MEAN_MOTION": 15.15673917, "ECCENTRICITY": 0.0007484, "INCLINATION": 98.847, "RA_OF_ASC_NODE": 146.8443, "ARG_OF_PERICENTER": 312.5198, "MEAN_ANOMALY": 74.7179, "EPHEMERIS_TYPE": 0, "CLASSIFICATION_TYPE": "U", "NORAD_CAT_ID": 31258, "ELEMENT_SET_NO": 999, "REV_AT_EPOCH": 97257, "BSTAR": 0.010392725, "MEAN_MOTION_DOT": 0.00203309, "MEAN_MOTION_DDOT": 0}, "tle": {"line1": "1 31258U 99025BMQ 25356.40138513  .00203309  00000+0  10393-1 0  9993", "line2": "2 31258  98.8470 146.8443 0007484 312.5198  74.7179 15.15673917972579"}}, "geometry": {"type": "Point", "coordinates": [154.34587730522955, -37.33877423939578]}}, {"type": "Feature", "properties": {"norad_id": 31259, "name": "FENGYUN 1C DEB", "group": "fengyun-1c-debris", "lat": 7.347119241827562, "lon": -102.54850244899623, "alt_km": 796.5157095876848, "timestamp": "2025-12-22T23:36:20.994809+00:00", "meta": {"OBJECT_NAME": "FENGYUN 1C DEB", "OBJECT_ID": "1999-025BMR", "EPOCH": "2025-12-22T04:16:11.831808", "MEAN_MOTION": 14.15080539, "ECCENTRICITY": 0.00658491, "INCLINATION": 99.009, "RA_OF_ASC_NODE": 75.4661, "ARG_OF_PERICENTER": 170.0822, "MEAN_ANOMALY": 220.3029, "EPHEMERIS_TYPE": 0, "CLASSIFICATION_TYPE": "U", "NORAD_CAT_ID": 31259, "ELEMENT_SET_NO": 999, "REV_AT_EPOCH": 95703, "BSTAR": 0.0015366103, "MEAN_MOTION_DOT": 2.997e-05, "MEAN_MOTION_DDOT": 0}, "tle": {"line1": "1 31259U 99025BMR 25356.17791472  .00002997  00000+0  15366-2 0  9993", "line2": "2 31259  99.0090  75.4661 0065849 170.0822 220.3029 14.15080539957038"}}, "geometry": {"type": "Point", "coordinates": [-102.54850244899623, 7.347119241827562]}}, {"type": "Feature", "properties": {"norad_id": 31260, "name": "FENGYUN 1C DEB", "group": "fengyun-1c-debris", "lat": -34.89329803431496, "lon": -99.35425016553494, "alt_km": 760.886526106221, "timestamp": "2025-12-22T23:36:20.994819+00:00", "meta": {"OBJECT_NAME": "FENGYUN 1C DEB", "OBJECT_ID": "1999-025BMS", "EPOCH": "2025-12-21T22:59:04.280352", "MEAN_MOTION": 14.36474992, "ECCENTRICITY": 0.00465158, "INCLINATION": 98.9571, "RA_OF_ASC_NODE": 253.2642, "ARG_OF_PERICENTER": 265.2057, "MEAN_ANOMALY": 156.8546, "EPHEMERIS_TYPE": 0, "CLASSIFICATION_TYPE": "U", "NORAD_CAT_ID": 31260, "ELEMENT_SET_NO": 999, "REV_AT_EPOCH": 97326, "BSTAR": 0.00091670653, "MEAN_MOTION_DOT": 2.675e-05, "MEAN_MOTION_DDOT": 0}, "tle": {"line1": "1 31260U 99025BMS 25355.95768843  .00002675  00000+0  91671-3 0  9993", "line2": "2 31260  98.9571 253.2642 0046515 265.2057 156.8546 14.36474992973266"}}, "geometry": {"type": "Point", "coordinates": [-99.35425016553494, -34.89329803431496]}}, {"type": "Feature", "properties": {"norad_id": 31261, "name": "FENGYUN 1C DEB", "group": "fengyun-1c-debris", "lat": 64.37822523250752, "lon": 150.2659403754847, "alt_km": 750.3014108761645, "timestamp": "2025-12-22T23:36:20.994830+00:00", "meta": {"OBJECT_NAME": "FENGYUN 1C DEB", "OBJECT_ID": "1999-025BMT", "EPOCH": "2025-12-21T20:23:42.052128", "MEAN_MOTION": 14.40131094, "ECCENTRICITY": 0.00500367, "INCLINATION": 99.0168, "RA_OF_ASC_NODE": 309.7375, "ARG_OF_PERICENTER": 205.3724, "MEAN_ANOMALY": 154.5005, "EPHEMERIS_TYPE": 0, "CLASSIFICATION_TYPE": "U", "NORAD_CAT_ID": 31261, "ELEMENT_SET_NO": 999, "REV_AT_EPOCH": 97481, "BSTAR": 0.00068348104, "MEAN_MOTION_DOT": 2.142e-05, "MEAN_MOTION_DDOT": 0}, "tle": {"line1": "1 31261U 99025BMT 25355.84979227  .00002142  00000+0  68348-3 0  9996", "line2": "2 31261  99.0168 309.7375 0050036 205.3724 154.5005 14.40131094974815"}}, "geometry": {"type": "Point", "coordinates": [150.2659403754847, 64.37822523250752]}}, {"type": "Feature", "properties": {"norad_id": 31262, "name": "FENGYUN 1C DEB", "group": "fengyun-1c-debris", "lat": 45.71927077007634, "lon": 71.22880193193306, "alt_km": 790.6739272250643, "timestamp": "2025-12-22T23:36:20.994840+00:00", "meta": {"OBJECT_NAME": "FENGYUN 1C DEB", "OBJECT_ID": "1999-025BMU", "EPOCH": "2025-12-16T18:59:36.733632", "MEAN_MOTION": 14.18213534, "ECCENTRICITY": 0.00549404, "INCLINATION": 99.0021, "RA_OF_ASC_NODE": 74.3056, "ARG_OF_PERICENTER": 86.7351, "MEAN_ANOMALY": 42.7165, "EPHEMERIS_TYPE": 0, "CLASSIFICATION_TYPE": "U", "NORAD_CAT_ID": 31262, "ELEMENT_SET_NO": 999, "REV_AT_EPOCH": 95766, "BSTAR": 0.0012380836, "MEAN_MOTION_DOT": 2.539e-05, "MEAN_MOTION_DDOT": 0}, "tle": {"line1": "1 31262U 99025BMU 25350.79139738  .00002539  00000+0  12381-2 0  9996", "line2": "2 31262  99.0021  74.3056 0054940  86.7351  42.7165 14.18213534957664"}}, "geometry": {"type": "Point", "coordinates": [71.22880193193306, 45.71927077007634]}}, {"type": "Feature", "properties": {"norad_id": 31263, "name": "FENGYUN 1C DEB", "group": "fengyun-1c-debris", "lat": -20.41795611412548, "lon": -72.56578483280445, "alt_km": 267.98995677941, "timestamp": "2025-12-22T23:36:20.994850+00:00", "meta": {"OBJECT_NAME": "FENGYUN 1C DEB", "OBJECT_ID": "1999-025BMV", "EPOCH": "2025-12-17T17:49:28.390944", "MEAN_MOTION": 15.68261869, "ECCENTRICITY": 0.00247871, "INCLINATION": 98.9827, "RA_OF_ASC_NODE": 277.2526, "ARG_OF_PERICENTER": 119.3199, "MEAN_ANOMALY": 241.0538, "EPHEMERIS_TYPE": 0, "CLASSIFICATION_TYPE": "U", "NORAD_CAT_ID": 31263, "ELEMENT_SET_NO": 999, "REV_AT_EPOCH": 97244, "BSTAR": 0.017261788, "MEAN_MOTION_DOT": 0.02239772, "MEAN_MOTION_DDOT": 0}, "tle": {"line1": "1 31263U 99025BMV 25351.74268971  .02239772  00000+0  17262-1 0  9990", "line2": "2 31263  98.9827 277.2526 0024787 119.3199 241.0538 15.68261869972443"}}, "geometry": {"type": "Point", "coordinates": [-72.56578483280445, -20.41795611412548]}}, {"type": "Feature", "properties": {"norad_id": 31264, "name": "FENGYUN 1C DEB", "group": "fengyun-1c-debris", "lat": 33.20840618541162, "lon": -111.78553087865875, "alt_km": 827.4023622775367, "timestamp": "2025-12-22T23:36:20.994860+00:00", "meta": {"OBJECT_NAME": "FENGYUN 1C DEB", "OBJECT_ID": "1999-025BMW", "EPOCH": "2025-12-20T22:38:07.154304", "MEAN_MOTION": 14.18607707, "ECCENTRICITY": 8.69e-05, "INCLINATION": 99.1147, "RA_OF_ASC_NODE": 252.151, "ARG_OF_PERICENTER": 8.7685, "MEAN_ANOMALY": 50.2965, "EPHEMERIS_TYPE": 0, "CLASSIFICATION_TYPE": "U", "NORAD_CAT_ID": 31264, "ELEMENT_SET_NO": 999, "REV_AT_EPOCH": 96545, "BSTAR": 0.00041498, "MEAN_MOTION_DOT": 8.13e-06, "MEAN_MOTION_DDOT": 0}, "tle": {"line1": "1 31264U 99025BMW 25354.94313836  .00000813  00000+0  41498-3 0  9997", "line2": "2 31264  99.1147 252.1510 0000869   8.7685  50.2965 14.18607707965459"}}, "geometry": {"type": "Point", "coordinates": [-111.78553087865875, 33.20840618541162]}}, {"type": "Feature", "properties": {"norad_id": 31266, "name": "FENGYUN 1C DEB", "group": "fengyun-1c-debris", "lat": -22.268931496938063, "lon": 156.69874940904955, "alt_km": 765.1637674172007, "timestamp": "2025-12-22T23:36:20.994871+00:00", "meta": {"OBJECT_NAME": "FENGYUN 1C DEB", "OBJECT_ID": "1999-025BMY", "EPOCH": "2025-12-21T17:06:10.778400", "MEAN_MOTION": 14.22348064, "ECCENTRICITY": 0.01295255, "INCLINATION": 99.2577, "RA_OF_ASC_NODE": 339.1941, "ARG_OF_PERICENTER": 258.5396, "MEAN_ANOMALY": 280.8603, "EPHEMERIS_TYPE": 0, "CLASSIFICATION_TYPE": "U", "NORAD_CAT_ID": 31266, "ELEMENT_SET_NO": 999, "REV_AT_EPOCH": 97333, "BSTAR": 0.00023902964, "MEAN_MOTION_DOT": 5.29e-06, "MEAN_MOTION_DDOT": 0}, "tle": {"line1": "1 31266U 99025BMY 25355.71262475  .00000529  00000+0  23903-3 0  9992", "line2": "2 31266  99.2577 339.1941 0129525 258.5396 280.8603 14.22348064973337"}}, "geometry": {"type": "Point", "coordinates": [156.69874940904955, -22.268931496938063]}}]}